ONEWEB-0361             
1 49287U 21090J   24098.39957717  .00000087  00000+0  18285-3 0  9994
2 49287  87.9158  73.7889 0001998  81.2894 278.8466 13.20769435124593
ONEWEB-0362             
1 49288U 21090K   24098.40026275  .00000000  00000+0 -31425-4 0  9991
2 49288  87.9099 104.3750 0001815 101.1770 258.9566 13.19724264121292
ONEWEB-0363             
1 49289U 21090L   24098.41536528  .00000152  00000+0  34095-3 0  9992
2 49289  87.9158  73.7811 0002347  78.7215 281.4182 13.20769901124602
ONEWEB-0364             
1 49290U 21090M   24098.37747609  .00000058  00000+0  11122-3 0  9994
2 49290  87.9158  73.8127 0001789  81.0136 279.1200 13.20769039125735
ONEWEB-0365             
1 49291U 21090N   24098.40974035  .00000018  00000+0  13441-4 0  9997
2 49291  87.9090 104.3579 0001869  92.9313 267.2034 13.19723685120800
ONEWEB-0366             
1 49292U 21090P   24098.37232812 -.00000088  00000+0 -27302-3 0  9993
2 49292  87.8904  89.0754 0001861  81.8183 278.3158 13.14503453122358
ONEWEB-0367             
1 49293U 21090Q   24098.41378397  .00000138  00000+0  30781-3 0  9997
2 49293  87.9159  73.7758 0001801  78.7221 281.4114 13.20770405124122
ONEWEB-0368             
1 49294U 21090R   24098.38694785  .00000036  00000+0  57331-4 0  9994
2 49294  87.9158  73.8106 0001923  58.4883 301.6438 13.20769810125273
